A-SEANSAT-PG1           
1 57197U 23091AH  26068.93896407  .00022724  00000+0  70386-3 0  9995
2 57197  97.5184 136.6191 0008889  78.3219 281.9020 15.33422293149487
NUSAT-49 (KLARA DAN VO*)
1 60500U 24149AJ  26068.79810190  .00012912  00000+0  43568-3 0  9991
2 60500  97.3807 150.7380 0001132 286.7761  73.3356 15.30828857 86935
